NORAD_CAT_ID,OBJECT_NAME,OBJECT_TYPE,EPOCH,MEAN_MOTION,ECCENTRICITY,INCLINATION,RA_OF_ASC_NODE,ARG_OF_PERICENTER,MEAN_ANOMALY,BSTAR,MEAN_MOTION_DOT,MEAN_MOTION_DDOT,TLE_LINE0,TLE_LINE1,TLE_LINE2,SEMIMAJOR_AXIS,PERIOD,APOGEE,PERIGEE,DECAYED
56802.0,STARLINK-6070,PAYLOAD,2024-08-10 17:58:41,14.9832916,0.0002471,70.0029,336.5953,264.5739,95.5138,3.6457e-05,3.42e-06,0.0,0 STARLINK-6070,1 56802U 23078AM  24223.74908662  .00000342  00000-0  36457-4 0  9994,2 56802  70.0029 336.5953 0002471 264.5739  95.5138 14.98329160 67169,6950.195,96.107,573.778,570.343,0.0
56802.0,STARLINK-6070,PAYLOAD,2024-08-11 18:00:41,14.98329554,0.0002284,70.003,334.07,251.9369,108.1541,7.0155e-05,7.44e-06,0.0,0 STARLINK-6070,1 56802U 23078AM  24224.75048498  .00000744  00000-0  70155-4 0  9997,2 56802  70.0030 334.0700 0002284 251.9369 108.1541 14.98329554 67318,6950.194,96.107,573.647,570.472,0.0
56802.0,STARLINK-6070,PAYLOAD,2024-08-12 00:25:16,14.98314047,7.68e-05,70.0013,333.3938,16.953,343.1654,-0.00033139,-4.042e-05,0.0,0 STARLINK-6070,1 56802U 23078AM  24225.01755537 -.00004042  00000-0 -33139-3 0  9993,2 56802  70.0013 333.3938 0000768  16.9530 343.1654 14.98314047 67359,6950.242,96.108,572.641,571.573,0.0
56802.0,STARLINK-6070,PAYLOAD,2024-08-12 13:14:20,14.98315683,0.0003087,69.9998,332.0478,270.6561,89.4244,-0.00010625,-1.36e-05,0.0,0 STARLINK-6070,1 56802U 23078AM  24225.55162605 -.00001360  00000-0 -10625-3 0  9995,2 56802  69.9998 332.0478 0003087 270.6561  89.4244 14.98315683 67175,6950.237,96.108,574.248,569.957,0.0
56802.0,STARLINK-6070,PAYLOAD,2024-08-13 00:27:15,14.98332475,0.0002935,70.0009,330.8738,267.8352,92.2471,-4.16e-05,-5.89e-06,0.0,0 STARLINK-6070,1 56802U 23078AM  24226.01893395 -.00000589  00000-0 -41600-4 0  9994,2 56802  70.0009 330.8738 0002935 267.8352  92.2471 14.98332475 67502,6950.185,96.107,574.09,570.01,0.0
56802.0,STARLINK-6070,PAYLOAD,2024-08-13 13:16:20,14.98337987,0.0002623,70.0002,329.5276,264.2786,95.8073,-1.9168e-05,-3.22e-06,0.0,0 STARLINK-6070,1 56802U 23078AM  24226.55301304 -.00000322  00000-0 -19168-4 0  9996,2 56802  70.0002 329.5276 0002623 264.2786  95.8073 14.98337987 67323,6950.168,96.106,573.856,570.21,0.0
56802.0,STARLINK-6070,PAYLOAD,2024-08-14 00:29:16,14.98322293,0.0002411,69.9988,328.348,272.5563,87.532,0.00023986,2.77e-05,0.0,0 STARLINK-6070,1 56802U 23078AM  24227.02033545  .00002770  00000-0  23986-3 0  9997,2 56802  69.9988 328.3480 0002411 272.5563  87.5320 14.98322293 67650,6950.217,96.107,573.757,570.406,0.0
56802.0,STARLINK-6070,PAYLOAD,2024-08-14 13:18:25,14.98196084,0.0006169,69.999,326.9974,278.3979,81.6481,-0.0016231,-0.00019346,0.0,0 STARLINK-6070,1 56802U 23078AM  24227.55446734 -.00019346  00000-0 -16231-2 0  9996,2 56802  69.9990 326.9974 0006169 278.3979  81.6481 14.98196084 67733,6950.607,96.116,576.76,568.184,0.0
56802.0,STARLINK-6070,PAYLOAD,2024-08-14 16:30:45,14.9821178,0.0002569,69.9973,326.6595,257.8369,102.2503,-0.0012234,-0.00014615,0.0,0 STARLINK-6070,1 56802U 23078AM  24227.68803017 -.00014615  00000-0 -12234-2 0  9994,2 56802  69.9973 326.6595 0002569 257.8369 102.2503 14.98211780 67494,6950.559,96.115,574.209,570.638,0.0
56802.0,STARLINK-6070,PAYLOAD,2024-08-15 00:31:17,14.9832704,0.000293,69.9999,325.8218,271.6165,88.4658,2.7391e-05,2.34e-06,0.0,0 STARLINK-6070,1 56802U 23078AM  24228.02173408  .00000234  00000-0  27391-4 0  9999,2 56802  69.9999 325.8218 0002930 271.6165  88.4658 14.98327040 67803,6950.202,96.107,574.103,570.031,0.0
56802.0,STARLINK-6070,PAYLOAD,2024-08-15 13:20:22,14.98334508,0.0002936,70.0005,324.4755,271.6175,88.4648,-3.7352e-05,-5.39e-06,0.0,0 STARLINK-6070,1 56802U 23078AM  24228.55581157 -.00000539  00000-0 -37352-4 0  9999,2 56802  70.0005 324.4755 0002936 271.6175  88.4648 14.98334508 67628,6950.179,96.107,574.085,570.003,0.0
56802.0,STARLINK-6070,PAYLOAD,2024-08-16 10:10:06,14.98341473,0.0002893,70.0001,322.2873,271.8333,88.2495,-0.00012767,-1.616e-05,0.0,0 STARLINK-6070,1 56802U 23078AM  24229.42368551 -.00001616  00000-0 -12767-3 0  9996,2 56802  70.0001 322.2873 0002893 271.8333  88.2495 14.98341473 68012,6950.157,96.106,574.033,570.012,0.0
56802.0,STARLINK-6070,PAYLOAD,2024-08-17 05:23:43,14.98328651,0.0002937,70.0004,320.2676,270.9044,89.1779,4.6821e-05,4.66e-06,0.0,0 STARLINK-6070,1 56802U 23078AM  24230.22480671  .00000466  00000-0  46821-4 0  9993,2 56802  70.0004 320.2676 0002937 270.9044  89.1779 14.98328651 68133,6950.197,96.107,574.103,570.021,0.0
56802.0,STARLINK-6070,PAYLOAD,2024-08-17 16:36:39,14.98331251,0.000337,69.9988,319.0864,277.1114,82.9662,3.6188e-06,-5e-07,0.0,0 STARLINK-6070,1 56802U 23078AM  24230.69212665 -.00000050  00000-0  36188-5 0  9996,2 56802  69.9988 319.0864 0003370 277.1114  82.9662 14.98331251 67945,6950.189,96.107,574.396,569.712,0.0
56802.0,STARLINK-6070,PAYLOAD,2024-08-18 05:25:44,14.98332941,0.000331,69.9986,317.7393,274.1318,85.9463,1.0198e-05,2.9e-07,0.0,0 STARLINK-6070,1 56802U 23078AM  24231.22620454  .00000029  00000-0  10198-4 0  9992,2 56802  69.9986 317.7393 0003310 274.1318  85.9463 14.98332941 68289,6950.184,96.107,574.349,569.748,0.0
56802.0,STARLINK-6070,PAYLOAD,2024-08-18 15:02:31,14.9834217,0.0002856,70.0005,316.732,272.0948,87.9884,9.8726e-05,1.086e-05,0.0,0 STARLINK-6070,1 56802U 23078AM  24231.62675454  .00001086  00000-0  98726-4 0  9993,2 56802  70.0005 316.7320 0002856 272.0948  87.9884 14.98342170 68344,6950.155,96.106,574.005,570.035,0.0
56802.0,STARLINK-6070,PAYLOAD,2024-08-19 11:52:17,14.98320816,0.0003039,69.9994,314.5424,265.8871,94.1941,-5.2774e-05,-7.22e-06,0.0,0 STARLINK-6070,1 56802U 23078AM  24232.49465109 -.00000722  00000-0 -52774-4 0  9994,2 56802  69.9994 314.5424 0003039 265.8871  94.1941 14.98320816 68479,6950.221,96.108,574.198,569.974,0.0
56802.0,STARLINK-6070,PAYLOAD,2024-08-20 05:29:46,14.98323552,0.0003135,69.9998,312.6929,270.3279,89.7521,7.6306e-05,8.17e-06,0.0,0 STARLINK-6070,1 56802U 23078AM  24233.22900608  .00000817  00000-0  76306-4 0  9994,2 56802  69.9998 312.6929 0003135 270.3279  89.7521 14.98323552 68588,6950.213,96.107,574.257,569.899,0.0
56802.0,STARLINK-6070,PAYLOAD,2024-08-20 10:16:11,14.99816232,0.0009246,70.002,312.1852,276.9341,83.0767,0.015939,0.00203511,0.0,0 STARLINK-6070,1 56802U 23078AM  24233.42790893  .00203511  00000-0  15939-1 0  9997,2 56802  70.0020 312.1852 0009246 276.9341  83.0767 14.99816232 68614,6945.601,96.012,573.888,561.044,0.0
56802.0,STARLINK-6070,PAYLOAD,2024-08-20 18:00:00,14.98336631,0.0003292,70.0015,311.3788,274.973,14.6309,-0.0024423,-0.00029119,0.0,0 STARLINK-6070,1 56802U 23078AM  24233.75001157 -.00029119  00000-0 -24423-2 0  9992,2 56802  70.0015 311.3788 0003292 274.9730  14.6309 14.98336631 68668,6950.172,96.107,574.325,569.749,0.0
56802.0,STARLINK-6070,PAYLOAD,2024-08-20 23:07:29,14.98031874,0.0005621,70.0007,310.8411,242.3068,117.7521,-0.0039551,-0.00046624,0.0,0 STARLINK-6070,1 56802U 23078AM  24233.96353143 -.00046624  00000-0 -39551-2 0  9998,2 56802  70.0007 310.8411 0005621 242.3068 117.7521 14.98031874 68692,6951.115,96.126,576.887,569.073,0.0
56802.0,STARLINK-6070,PAYLOAD,2024-08-21 11:56:19,14.9832023,0.0002927,69.9998,309.4931,265.1997,94.8828,3.1161e-05,2.79e-06,0.0,0 STARLINK-6070,1 56802U 23078AM  24234.49744904  .00000279  00000-0  31161-4 0  9991,2 56802  69.9998 309.4931 0002927 265.1997  94.8828 14.98320230 68770,6950.223,96.108,574.122,570.054,0.0
56802.0,STARLINK-6070,PAYLOAD,2024-08-21 13:30:15,14.99979845,0.0010497,70.0004,309.322,260.7791,99.2182,0.017883,0.00230239,0.0,0 STARLINK-6070,1 56802U 23078AM  24234.56267755  .00230239  00000-0  17883-1 0  9996,2 56802  70.0004 309.3220 0010497 260.7791  99.2182 14.99979845 68523,6945.096,96.001,574.251,559.67,0.0
56802.0,STARLINK-6070,PAYLOAD,2024-08-21 22:00:00,14.98334961,0.0003227,70.0012,308.4373,273.13,187.6403,-0.0012025,-0.00014414,0.0,0 STARLINK-6070,1 56802U 23078AM  24234.91667824 -.00014414  00000-0 -12025-2 0  9997,2 56802  70.0012 308.4373 0003227 273.1300 187.6403 14.98334961 68833,6950.178,96.107,574.285,569.8,0.0
